*******************************************************************************
Ephemeris / WWW_USER Fri Mar  7 10:39:57 2025 Pasadena, USA      / Horizons    
*******************************************************************************
Target body name: (2018 TC)                       {source: JPL#10}
Center body name: Earth (399)                     {source: DE441}
Center-site name: Mauna Kea
*******************************************************************************
Start time      : A.D. 2018-Oct-04 04:17:00.0000 UT      
Stop  time      : A.D. 2018-Oct-04 16:04:00.0000 UT      
Step-size       : 1 minutes
*******************************************************************************
Target pole/equ : undefined
Target radii    : undefined                                                    
Center geodetic : 204.5278, 19.8260847, 4.21024   {E-lon(deg),Lat(deg),Alt(km)}
Center cylindric: 204.5278, 6006.35451, 2151.0229 {E-lon(deg),Dxy(km),Dz(km)}
Center pole/equ : ITRF93                          {East-longitude positive}
Center radii    : 6378.137, 6378.137, 6356.752 km {Equator_a, b, pole_c}       
Target primary  : Sun
Vis. interferer : MOON (R_eq= 1737.400) km        {source: DE441}
Rel. light bend : Sun                             {source: DE441}
Rel. lght bnd GM: 1.3271E+11 km^3/s^2                                          
Small-body perts: Yes                             {source: SB441-N16}
Atmos refraction: NO (AIRLESS)
RA format       : HMS
Time format     : CAL 
Calendar mode   : Mixed Julian/Gregorian
RTS-only print  : NO       
EOP file        : eop.250306.p250602                                           
EOP coverage    : DATA-BASED 1962-JAN-20 TO 2025-MAR-06. PREDICTS-> 2025-JUN-01
Units conversion: 1 au= 149597870.700 km, c= 299792.458 km/s, 1 day= 86400.0 s 
Table cut-offs 1: Elevation (-90.0deg=NO ),Airmass (>38.000=NO), Daylight (YES)
Table cut-offs 2: Solar elongation (  0.0,180.0=NO ),Local Hour Angle( 0.0=NO )
Table cut-offs 3: RA/DEC angular rate (     0.0=NO )                           
*******************************************************************************
Initial IAU76/J2000 heliocentric ecliptic osculating elements (au, days, deg.):
  EPOCH=  2458399.5 ! 2018-Oct-08.00 (TDB)         Residual RMS= .20211        
   EC= .2253304451868516   QR= .9525668516843322   TP= 2458354.2554697809      
   OM= 188.9146441926015   W=  135.2493409557404   IN= 3.631837316097226       
  Equivalent ICRF heliocentric cartesian coordinates (au, au/d):
   X= 9.874490534016482E-01  Y= 2.414303737329446E-01  Z= 9.746991415829437E-02
  VX=-1.955204385424240E-03 VY= 1.722364762632024E-02 VZ= 6.197883797821973E-03
Asteroid physical parameters (km, seconds, rotational period in hours):        
   GM= n.a.                RAD= n.a.               ROTPER= n.a.                
   H= 26.6                 G= .150                 B-V= n.a.                   
                           ALBEDO= n.a.            STYP= n.a.                  
*******************************************************************************
 Date__(UT)__HR:MN     R.A._________(ICRF)_________DEC
******************************************************
$$SOE
 2018-Oct-04 08:23     02 03 45.599159 +00 16 01.10986
 2018-Oct-04 08:24     02 03 45.776184 +00 15 55.92161
 2018-Oct-04 08:25     02 03 45.952477 +00 15 50.73517
 2018-Oct-04 08:26     02 03 46.128040 +00 15 45.55052
 2018-Oct-04 08:27     02 03 46.302876 +00 15 40.36768
 2018-Oct-04 08:28     02 03 46.476989 +00 15 35.18665
 2018-Oct-04 08:29     02 03 46.650382 +00 15 30.00742
 2018-Oct-04 08:30     02 03 46.823057 +00 15 24.82999
 2018-Oct-04 08:31     02 03 46.995018 +00 15 19.65436
 2018-Oct-04 08:32     02 03 47.166268 +00 15 14.48053
 2018-Oct-04 08:33     02 03 47.336810 +00 15 09.30851
 2018-Oct-04 08:34     02 03 47.506647 +00 15 04.13828
 2018-Oct-04 08:35     02 03 47.675782 +00 14 58.96986
 2018-Oct-04 08:36     02 03 47.844219 +00 14 53.80323
 2018-Oct-04 08:37     02 03 48.011960 +00 14 48.63841
 2018-Oct-04 08:38     02 03 48.179009 +00 14 43.47538
 2018-Oct-04 08:39     02 03 48.345368 +00 14 38.31415
 2018-Oct-04 08:40     02 03 48.511042 +00 14 33.15472
 2018-Oct-04 08:41     02 03 48.676033 +00 14 27.99708
 2018-Oct-04 08:42     02 03 48.840344 +00 14 22.84124
 2018-Oct-04 08:43     02 03 49.003979 +00 14 17.68720
 2018-Oct-04 08:44     02 03 49.166940 +00 14 12.53496
 2018-Oct-04 08:45     02 03 49.329232 +00 14 07.38451
 2018-Oct-04 08:46     02 03 49.490857 +00 14 02.23585
 2018-Oct-04 08:47     02 03 49.651818 +00 13 57.08900
 2018-Oct-04 08:48     02 03 49.812119 +00 13 51.94393
 2018-Oct-04 08:49     02 03 49.971763 +00 13 46.80066
 2018-Oct-04 08:50     02 03 50.130753 +00 13 41.65918
 2018-Oct-04 08:51     02 03 50.289093 +00 13 36.51950
 2018-Oct-04 08:52     02 03 50.446785 +00 13 31.38161
 2018-Oct-04 08:53     02 03 50.603834 +00 13 26.24551
 2018-Oct-04 08:54     02 03 50.760242 +00 13 21.11121
 2018-Oct-04 08:55     02 03 50.916013 +00 13 15.97869
 2018-Oct-04 08:56     02 03 51.071150 +00 13 10.84797
 2018-Oct-04 08:57     02 03 51.225656 +00 13 05.71904
 2018-Oct-04 08:58     02 03 51.379535 +00 13 00.59190
 2018-Oct-04 08:59     02 03 51.532790 +00 12 55.46655
 2018-Oct-04 09:00     02 03 51.685425 +00 12 50.34299
 2018-Oct-04 09:01     02 03 51.837442 +00 12 45.22123
 2018-Oct-04 09:02     02 03 51.988846 +00 12 40.10125
 2018-Oct-04 09:03     02 03 52.139638 +00 12 34.98306
 2018-Oct-04 09:04     02 03 52.289824 +00 12 29.86665
 2018-Oct-04 09:05     02 03 52.439407 +00 12 24.75204
 2018-Oct-04 09:06     02 03 52.588389 +00 12 19.63922
 2018-Oct-04 09:07     02 03 52.736774 +00 12 14.52818
 2018-Oct-04 09:08     02 03 52.884565 +00 12 09.41893
 2018-Oct-04 09:09     02 03 53.031767 +00 12 04.31147
 2018-Oct-04 09:10     02 03 53.178382 +00 11 59.20579
 2018-Oct-04 09:11     02 03 53.324414 +00 11 54.10191
 2018-Oct-04 09:12     02 03 53.469866 +00 11 48.99980
 2018-Oct-04 09:13     02 03 53.614742 +00 11 43.89949
 2018-Oct-04 09:14     02 03 53.759046 +00 11 38.80096
 2018-Oct-04 09:15     02 03 53.902780 +00 11 33.70422
 2018-Oct-04 09:16     02 03 54.045948 +00 11 28.60926
 2018-Oct-04 09:17     02 03 54.188554 +00 11 23.51609
 2018-Oct-04 09:18     02 03 54.330601 +00 11 18.42470
 2018-Oct-04 09:19     02 03 54.472093 +00 11 13.33510
 2018-Oct-04 09:20     02 03 54.613033 +00 11 08.24728
 2018-Oct-04 09:21     02 03 54.753425 +00 11 03.16124
 2018-Oct-04 09:22     02 03 54.893272 +00 10 58.07699
 2018-Oct-04 09:23     02 03 55.032578 +00 10 52.99452
 2018-Oct-04 09:24     02 03 55.171346 +00 10 47.91384
 2018-Oct-04 09:25     02 03 55.309580 +00 10 42.83494
 2018-Oct-04 09:26     02 03 55.447283 +00 10 37.75782
 2018-Oct-04 09:27     02 03 55.584460 +00 10 32.68249
 2018-Oct-04 09:28     02 03 55.721113 +00 10 27.60893
 2018-Oct-04 09:29     02 03 55.857246 +00 10 22.53717
 2018-Oct-04 09:30     02 03 55.992862 +00 10 17.46718
 2018-Oct-04 09:31     02 03 56.127967 +00 10 12.39897
 2018-Oct-04 09:32     02 03 56.262562 +00 10 07.33255
 2018-Oct-04 09:33     02 03 56.396651 +00 10 02.26790
 2018-Oct-04 09:34     02 03 56.530239 +00 09 57.20504
 2018-Oct-04 09:35     02 03 56.663328 +00 09 52.14396
 2018-Oct-04 09:36     02 03 56.795922 +00 09 47.08466
 2018-Oct-04 09:37     02 03 56.928026 +00 09 42.02714
 2018-Oct-04 09:38     02 03 57.059642 +00 09 36.97141
 2018-Oct-04 09:39     02 03 57.190774 +00 09 31.91745
 2018-Oct-04 09:40     02 03 57.321426 +00 09 26.86527
 2018-Oct-04 09:41     02 03 57.451601 +00 09 21.81487
 2018-Oct-04 09:42     02 03 57.581304 +00 09 16.76626
 2018-Oct-04 09:43     02 03 57.710537 +00 09 11.71942
 2018-Oct-04 09:44     02 03 57.839305 +00 09 06.67436
 2018-Oct-04 09:45     02 03 57.967611 +00 09 01.63108
 2018-Oct-04 09:46     02 03 58.095459 +00 08 56.58958
 2018-Oct-04 09:47     02 03 58.222852 +00 08 51.54986
 2018-Oct-04 09:48     02 03 58.349794 +00 08 46.51192
 2018-Oct-04 09:49     02 03 58.476289 +00 08 41.47575
 2018-Oct-04 09:50     02 03 58.602341 +00 08 36.44137
 2018-Oct-04 09:51     02 03 58.727953 +00 08 31.40876
 2018-Oct-04 09:52     02 03 58.853129 +00 08 26.37793
 2018-Oct-04 09:53     02 03 58.977872 +00 08 21.34889
 2018-Oct-04 09:54     02 03 59.102187 +00 08 16.32161
 2018-Oct-04 09:55     02 03 59.226077 +00 08 11.29612
 2018-Oct-04 09:56     02 03 59.349545 +00 08 06.27240
 2018-Oct-04 09:57     02 03 59.472597 +00 08 01.25047
 2018-Oct-04 09:58     02 03 59.595234 +00 07 56.23030
 2018-Oct-04 09:59     02 03 59.717461 +00 07 51.21192
 2018-Oct-04 10:00     02 03 59.839282 +00 07 46.19531
 2018-Oct-04 10:01     02 03 59.960701 +00 07 41.18049
 2018-Oct-04 10:02     02 04 00.081720 +00 07 36.16743
 2018-Oct-04 10:03     02 04 00.202345 +00 07 31.15616
 2018-Oct-04 10:04     02 04 00.322578 +00 07 26.14666
 2018-Oct-04 10:05     02 04 00.442424 +00 07 21.13894
 2018-Oct-04 10:06     02 04 00.561886 +00 07 16.13300
 2018-Oct-04 10:07     02 04 00.680968 +00 07 11.12883
 2018-Oct-04 10:08     02 04 00.799674 +00 07 06.12644
 2018-Oct-04 10:09     02 04 00.918007 +00 07 01.12582
 2018-Oct-04 10:10     02 04 01.035972 +00 06 56.12698
 2018-Oct-04 10:11     02 04 01.153572 +00 06 51.12992
 2018-Oct-04 10:12     02 04 01.270811 +00 06 46.13463
 2018-Oct-04 10:13     02 04 01.387692 +00 06 41.14112
 2018-Oct-04 10:14     02 04 01.504220 +00 06 36.14939
 2018-Oct-04 10:15     02 04 01.620398 +00 06 31.15943
 2018-Oct-04 10:16     02 04 01.736230 +00 06 26.17125
 2018-Oct-04 10:17     02 04 01.851720 +00 06 21.18484
 2018-Oct-04 10:18     02 04 01.966872 +00 06 16.20021
 2018-Oct-04 10:19     02 04 02.081689 +00 06 11.21735
 2018-Oct-04 10:20     02 04 02.196175 +00 06 06.23627
 2018-Oct-04 10:21     02 04 02.310335 +00 06 01.25697
 2018-Oct-04 10:22     02 04 02.424171 +00 05 56.27944
 2018-Oct-04 10:23     02 04 02.537688 +00 05 51.30368
 2018-Oct-04 10:24     02 04 02.650890 +00 05 46.32970
 2018-Oct-04 10:25     02 04 02.763780 +00 05 41.35750
